{"type": "FeatureCollection", "features": [ {"type": "Feature", "properties": {"norad_id": 66593, "name": "STARLINK-36031", "group": "last-30-days", "lat": -41.173299842398315, "lon": 79.90710368223874, "alt_km": 446.25345662826203, "timestamp": "2025-12-20T03:42:46.118497+00:00", "meta": {"OBJECT_NAME": "STARLINK-36031", "OBJECT_ID": "2025-270F", "EPOCH": "2025-12-19T20:00:01.999008", "MEAN_MOTION": 15.40662261, "ECCENTRICITY": 0.0001609, "INCLINATION": 42.9996, "RA_OF_ASC_NODE": 151.5744, "ARG_OF_PERICENTER": 278.1265, "MEAN_ANOMALY": 22.5129, "EPHEMERIS_TYPE": 0, "CLASSIFICATION_TYPE": "U", "NORAD_CAT_ID": 66593, "ELEMENT_SET_NO": 999, "REV_AT_EPOCH": 554, "BSTAR": 0.0013926, "MEAN_MOTION_DOT": 0.00058243, "MEAN_MOTION_DDOT": 0}, "tle": {"line1": "1 66593U 25270F   25353.83335647  .00058243  00000+0  13926-2 0  9996", "line2": "2 66593  42.9996 151.5744 0001609 278.1265  22.5129 15.40662261  5542"}}, "geometry": {"type": "Point", "coordinates": [79.90710368223874, -41.173299842398315]}}, {"type": "Feature", "properties": {"norad_id": 66594, "name": "STARLINK-36032", "group": "last-30-days", "lat": 16.406827972799007, "lon": 167.90116643819243, "alt_km": 442.0593030170876, "timestamp": "2025-12-20T03:42:46.118507+00:00", "meta": {"OBJECT_NAME": "STARLINK-36032", "OBJECT_ID": "2025-270G", "EPOCH": "2025-12-19T20:00:01.999008", "MEAN_MOTION": 15.40613911, "ECCENTRICITY": 0.00014, "INCLINATION": 42.9998, "RA_OF_ASC_NODE": 151.3332, "ARG_OF_PERICENTER": 260.5897, "MEAN_ANOMALY": 139.562, "EPHEMERIS_TYPE": 0, "CLASSIFICATION_TYPE": "U", "NORAD_CAT_ID": 66594, "ELEMENT_SET_NO": 999, "REV_AT_EPOCH": 527, "BSTAR": 0.0017818, "MEAN_MOTION_DOT": 0.00074643, "MEAN_MOTION_DDOT": 0}, "tle": {"line1": "1 66594U 25270G   25353.83335647  .00074643  00000+0  17818-2 0  9993", "line2": "2 66594  42.9998 151.3332 0001400 260.5897 139.5620 15.40613911  5274"}}, "geometry": {"type": "Point", "coordinates": [167.90116643819243, 16.406827972799007]}}, {"type": "Feature", "properties": {"norad_id": 66595, "name": "STARLINK-35711", "group": "last-30-days", "lat": 42.350484261864075, "lon": -132.63625980557075, "alt_km": 409.135731192956, "timestamp": "2025-12-20T03:42:46.118517+00:00", "meta": {"OBJECT_NAME": "STARLINK-35711", "OBJECT_ID": "2025-270H", "EPOCH": "2025-12-19T19:38:05.675136", "MEAN_MOTION": 15.505926, "ECCENTRICITY": 0.000167, "INCLINATION": 42.9992, "RA_OF_ASC_NODE": 151.3087, "ARG_OF_PERICENTER": 282.2171, "MEAN_ANOMALY": 77.8502, "EPHEMERIS_TYPE": 0, "CLASSIFICATION_TYPE": "U", "NORAD_CAT_ID": 66595, "ELEMENT_SET_NO": 999, "REV_AT_EPOCH": 555, "BSTAR": 0.0014406, "MEAN_MOTION_DOT": 0.00085137, "MEAN_MOTION_DDOT": 0}, "tle": {"line1": "1 66595U 25270H   25353.81812124  .00085137  00000+0  14406-2 0  9992", "line2": "2 66595  42.9992 151.3087 0001670 282.2171  77.8502 15.50592600  5557"}}, "geometry": {"type": "Point", "coordinates": [-132.63625980557075, 42.350484261864075]}}, {"type": "Feature", "properties": {"norad_id": 66596, "name": "STARLINK-35811", "group": "last-30-days", "lat": 4.605926985889631, "lon": -34.96962647717851, "alt_km": 443.2568148277487, "timestamp": "2025-12-20T03:42:46.118528+00:00", "meta": {"OBJECT_NAME": "STARLINK-35811", "OBJECT_ID": "2025-270J", "EPOCH": "2025-12-19T19:11:07.175904", "MEAN_MOTION": 15.40716586, "ECCENTRICITY": 0.0002507, "INCLINATION": 42.999, "RA_OF_ASC_NODE": 152.0383, "ARG_OF_PERICENTER": 266.8739, "MEAN_ANOMALY": 93.1831, "EPHEMERIS_TYPE": 0, "CLASSIFICATION_TYPE": "U", "NORAD_CAT_ID": 66596, "ELEMENT_SET_NO": 999, "REV_AT_EPOCH": 554, "BSTAR": 0.00078995, "MEAN_MOTION_DOT": 0.00032856, "MEAN_MOTION_DDOT": 0}, "tle": {"line1": "1 66596U 25270J   25353.79938861  .00032856  00000+0  78995-3 0  9991", "line2": "2 66596  42.9990 152.0383 0002507 266.8739  93.1831 15.40716586  5546"}}, "geometry": {"type": "Point", "coordinates": [-34.96962647717851, 4.605926985889631]}}, {"type": "Feature", "properties": {"norad_id": 66597, "name": "STARLINK-35820", "group": "last-30-days", "lat": -27.69430984888857, "lon": 4.151927081748305, "alt_km": 445.8964712162051, "timestamp": "2025-12-20T03:42:46.118538+00:00", "meta": {"OBJECT_NAME": "STARLINK-35820", "OBJECT_ID": "2025-270K", "EPOCH": "2025-12-19T17:24:51.872832", "MEAN_MOTION": 15.40703318, "ECCENTRICITY": 0.0001481, "INCLINATION": 42.9992, "RA_OF_ASC_NODE": 152.342, "ARG_OF_PERICENTER": 270.4129, "MEAN_ANOMALY": 89.6558, "EPHEMERIS_TYPE": 0, "CLASSIFICATION_TYPE": "U", "NORAD_CAT_ID": 66597, "ELEMENT_SET_NO": 999, "REV_AT_EPOCH": 553, "BSTAR": 0.00042249, "MEAN_MOTION_DOT": 0.00017387, "MEAN_MOTION_DDOT": 0}, "tle": {"line1": "1 66597U 25270K   25353.72560038  .00017387  00000+0  42249-3 0  9997", "line2": "2 66597  42.9992 152.3420 0001481 270.4129  89.6558 15.40703318  5532"}}, "geometry": {"type": "Point", "coordinates": [4.151927081748305, -27.69430984888857]}}, {"type": "Feature", "properties": {"norad_id": 66598, "name": "STARLINK-35981", "group": "last-30-days", "lat": -31.528805511907102, "lon": 108.48586465257232, "alt_km": 445.72741583615334, "timestamp": "2025-12-20T03:42:46.118548+00:00", "meta": {"OBJECT_NAME": "STARLINK-35981", "OBJECT_ID": "2025-270L", "EPOCH": "2025-12-19T20:00:01.999008", "MEAN_MOTION": 15.40663392, "ECCENTRICITY": 0.0001954, "INCLINATION": 42.9999, "RA_OF_ASC_NODE": 151.5129, "ARG_OF_PERICENTER": 275.0675, "MEAN_ANOMALY": 50.4512, "EPHEMERIS_TYPE": 0, "CLASSIFICATION_TYPE": "U", "NORAD_CAT_ID": 66598, "ELEMENT_SET_NO": 999, "REV_AT_EPOCH": 538, "BSTAR": 0.0013648, "MEAN_MOTION_DOT": 0.00057068, "MEAN_MOTION_DDOT": 0}, "tle": {"line1": "1 66598U 25270L   25353.83335647  .00057068  00000+0  13648-2 0  9996", "line2": "2 66598  42.9999 151.5129 0001954 275.0675  50.4512 15.40663392  5385"}}, "geometry": {"type": "Point", "coordinates": [108.48586465257232, -31.528805511907102]}}, {"type": "Feature", "properties": {"norad_id": 66599, "name": "STARLINK-35930", "group": "last-30-days", "lat": 42.93712916558015, "lon": -123.74274534917723, "alt_km": 409.78164586113417, "timestamp": "2025-12-20T03:42:46.118560+00:00", "meta": {"OBJECT_NAME": "STARLINK-35930", "OBJECT_ID": "2025-270M", "EPOCH": "2025-12-19T04:08:36.625632", "MEAN_MOTION": 15.50348464, "ECCENTRICITY": 0.0002903, "INCLINATION": 42.9985, "RA_OF_ASC_NODE": 155.067, "ARG_OF_PERICENTER": 324.189, "MEAN_ANOMALY": 35.8775, "EPHEMERIS_TYPE": 0, "CLASSIFICATION_TYPE": "U", "NORAD_CAT_ID": 66599, "ELEMENT_SET_NO": 999, "REV_AT_EPOCH": 534, "BSTAR": -2.964998e-06, "MEAN_MOTION_DOT": -5.14e-06, "MEAN_MOTION_DDOT": 0}, "tle": {"line1": "1 66599U 25270M   25353.17264613 -.00000514  00000+0 -29650-5 0  9997", "line2": "2 66599  42.9985 155.0670 0002903 324.1890  35.8775 15.50348464  5346"}}, "geometry": {"type": "Point", "coordinates": [-123.74274534917723, 42.93712916558015]}}, {"type": "Feature", "properties": {"norad_id": 66600, "name": "STARLINK-35980", "group": "last-30-days", "lat": -0.24030824949910523, "lon": 149.28194742142728, "alt_km": 443.54760807137063, "timestamp": "2025-12-20T03:42:46.118570+00:00", "meta": {"OBJECT_NAME": "STARLINK-35980", "OBJECT_ID": "2025-270N", "EPOCH": "2025-12-19T20:00:01.999008", "MEAN_MOTION": 15.40666043, "ECCENTRICITY": 0.0001852, "INCLINATION": 43.0001, "RA_OF_ASC_NODE": 151.392, "ARG_OF_PERICENTER": 281.0158, "MEAN_ANOMALY": 94.2563, "EPHEMERIS_TYPE": 0, "CLASSIFICATION_TYPE": "U", "NORAD_CAT_ID": 66600, "ELEMENT_SET_NO": 999, "REV_AT_EPOCH": 544, "BSTAR": 0.0013551, "MEAN_MOTION_DOT": 0.00056659, "MEAN_MOTION_DDOT": 0}, "tle": {"line1": "1 66600U 25270N   25353.83335647  .00056659  00000+0  13551-2 0  9998", "line2": "2 66600  43.0001 151.3920 0001852 281.0158  94.2563 15.40666043  5447"}}, "geometry": {"type": "Point", "coordinates": [149.28194742142728, -0.24030824949910523]}}, {"type": "Feature", "properties": {"norad_id": 66601, "name": "STARLINK-35978", "group": "last-30-days", "lat": -42.23095498310854, "lon": 46.709593031505676, "alt_km": 446.24694968265885, "timestamp": "2025-12-20T03:42:46.118580+00:00", "meta": {"OBJECT_NAME": "STARLINK-35978", "OBJECT_ID": "2025-270P", "EPOCH": "2025-12-19T18:48:31.837248", "MEAN_MOTION": 15.40749629, "ECCENTRICITY": 0.0001573, "INCLINATION": 43.0003, "RA_OF_ASC_NODE": 151.9165, "ARG_OF_PERICENTER": 292.4203, "MEAN_ANOMALY": 67.6487, "EPHEMERIS_TYPE": 0, "CLASSIFICATION_TYPE": "U", "NORAD_CAT_ID": 66601, "ELEMENT_SET_NO": 999, "REV_AT_EPOCH": 527, "BSTAR": 0.001191, "MEAN_MOTION_DOT": 0.00049854, "MEAN_MOTION_DDOT": 0}, "tle": {"line1": "1 66601U 25270P   25353.78370182  .00049854  00000+0  11910-2 0  9992", "line2": "2 66601  43.0003 151.9165 0001573 292.4203  67.6487 15.40749629  5276"}}, "geometry": {"type": "Point", "coordinates": [46.709593031505676, -42.23095498310854]}}, {"type": "Feature", "properties": {"norad_id": 66602, "name": "STARLINK-36050", "group": "last-30-days", "lat": -3.8972143366148275, "lon": -25.84882571284944, "alt_km": 443.9694070088135, "timestamp": "2025-12-20T03:42:46.118591+00:00", "meta": {"OBJECT_NAME": "STARLINK-36050", "OBJECT_ID": "2025-270Q", "EPOCH": "2025-12-19T17:34:32.506752", "MEAN_MOTION": 15.40725936, "ECCENTRICITY": 0.000163, "INCLINATION": 42.9991, "RA_OF_ASC_NODE": 152.3934, "ARG_OF_PERICENTER": 264.4094, "MEAN_ANOMALY": 95.6576, "EPHEMERIS_TYPE": 0, "CLASSIFICATION_TYPE": "U", "NORAD_CAT_ID": 66602, "ELEMENT_SET_NO": 999, "REV_AT_EPOCH": 532, "BSTAR": 0.00096254, "MEAN_MOTION_DOT": 0.00040151, "MEAN_MOTION_DDOT": 0}, "tle": {"line1": "1 66602U 25270Q   25353.73232068  .00040151  00000+0  96254-3 0  9994", "line2": "2 66602  42.9991 152.3934 0001630 264.4094  95.6576 15.40725936  5322"}}, "geometry": {"type": "Point", "coordinates": [-25.84882571284944, -3.8972143366148275]}}]}